{
  "type": "FeatureCollection",
  "features": [
    {
      "type": "Feature",
      "properties": {
        "norad_id": 34492,
        "name": "IRIDIUM 33 DEB",
        "group": "iridium-33-debris",
        "lat": -41.65123346602692,
        "lon": -30.506257426702174,
        "alt_km": 824.3372838559735,
        "timestamp": "2025-12-17T15:50:10.166174+00:00",
        "meta_object_name": "IRIDIUM 33 DEB",
        "meta_object_id": "1997-051GH",
        "meta_epoch": "2025-12-16T23:27:51.526944",
        "meta_mean_motion": 14.25813721,
        "meta_eccentricity": 0.01887461,
        "meta_inclination": 86.471,
        "meta_ra_of_asc_node": 332.9158,
        "meta_arg_of_pericenter": 224.4111,
        "meta_mean_anomaly": 192.488,
        "meta_ephemeris_type": 0,
        "meta_classification_type": "U",
        "meta_norad_cat_id": 34492,
        "meta_element_set_no": 999,
        "meta_rev_at_epoch": 85119,
        "meta_bstar": 0.0027700414,
        "meta_mean_motion_dot": 7.961e-05,
        "meta_mean_motion_ddot": 0,
        "tle_line1": "1 34492U 97051GH  25350.97767971  .00007961  00000+0  27700-2 0  9992",
        "tle_line2": "2 34492  86.4710 332.9158 0188746 224.4111 192.4880 14.25813721851190"
      },
      "geometry": {
        "type": "Point",
        "coordinates": [
          -30.506257426702174,
          -41.65123346602692
        ]
      }
    },
    {
      "type": "Feature",
      "properties": {
        "norad_id": 34497,
        "name": "IRIDIUM 33 DEB",
        "group": "iridium-33-debris",
        "lat": -43.35041837964383,
        "lon": -126.1768472996415,
        "alt_km": 816.4083246173523,
        "timestamp": "2025-12-17T15:50:10.166185+00:00",
        "meta_object_name": "IRIDIUM 33 DEB",
        "meta_object_id": "1997-051GN",
        "meta_epoch": "2025-12-17T03:08:55.431168",
        "meta_mean_motion": 14.27466944,
        "meta_eccentricity": 0.00783935,
        "meta_inclination": 86.2776,
        "meta_ra_of_asc_node": 50.5255,
        "meta_arg_of_pericenter": 325.2026,
        "meta_mean_anomaly": 64.1256,
        "meta_ephemeris_type": 0,
        "meta_classification_type": "U",
        "meta_norad_cat_id": 34497,
        "meta_element_set_no": 999,
        "meta_rev_at_epoch": 86946,
        "meta_bstar": 0.00048733153,
        "meta_mean_motion_dot": 1.254e-05,
        "meta_mean_motion_ddot": 0,
        "tle_line1": "1 34497U 97051GN  25351.13119712  .00001254  00000+0  48733-3 0  9999",
        "tle_line2": "2 34497  86.2776  50.5255 0078393 325.2026  64.1256 14.27466944869461"
      },
      "geometry": {
        "type": "Point",
        "coordinates": [
          -126.1768472996415,
          -43.35041837964383
        ]
      }
    },
    {
      "type": "Feature",
      "properties": {
        "norad_id": 34508,
        "name": "IRIDIUM 33 DEB",
        "group": "iridium-33-debris",
        "lat": -37.28821205945974,
        "lon": -76.67221548564372,
        "alt_km": 746.2025005514461,
        "timestamp": "2025-12-17T15:50:10.166196+00:00",
        "meta_object_name": "IRIDIUM 33 DEB",
        "meta_object_id": "1997-051GZ",
        "meta_epoch": "2025-12-17T08:09:19.662624",
        "meta_mean_motion": 14.38463822,
        "meta_eccentricity": 0.00664313,
        "meta_inclination": 86.3706,
        "meta_ra_of_asc_node": 100.6932,
        "meta_arg_of_pericenter": 158.1405,
        "meta_mean_anomaly": 202.2652,
        "meta_ephemeris_type": 0,
        "meta_classification_type": "U",
        "meta_norad_cat_id": 34508,
        "meta_element_set_no": 999,
        "meta_rev_at_epoch": 87375,
        "meta_bstar": 0.00097769718,
        "meta_mean_motion_dot": 3.081e-05,
        "meta_mean_motion_ddot": 0,
        "tle_line1": "1 34508U 97051GZ  25351.33981091  .00003081  00000+0  97770-3 0  9996",
        "tle_line2": "2 34508  86.3706 100.6932 0066431 158.1405 202.2652 14.38463822873757"
      },
      "geometry": {
        "type": "Point",
        "coordinates": [
          -76.67221548564372,
          -37.28821205945974
        ]
      }
    },
    {
      "type": "Feature",
      "properties": {
        "norad_id": 34521,
        "name": "IRIDIUM 33 DEB",
        "group": "iridium-33-debris",
        "lat": 64.243542164199,
        "lon": -159.1576230858506,
        "alt_km": 675.651200411784,
        "timestamp": "2025-12-17T15:50:10.166207+00:00",
        "meta_object_name": "IRIDIUM 33 DEB",
        "meta_object_id": "1997-051HN",
        "meta_epoch": "2025-12-17T03:49:21.664128",
        "meta_mean_motion": 14.6340494,
        "meta_eccentricity": 0.00020925,
        "meta_inclination": 86.3798,
        "meta_ra_of_asc_node": 28.6027,
        "meta_arg_of_pericenter": 192.7968,
        "meta_mean_anomaly": 167.3192,
        "meta_ephemeris_type": 0,
        "meta_classification_type": "U",
        "meta_norad_cat_id": 34521,
        "meta_element_set_no": 999,
        "meta_rev_at_epoch": 88537,
        "meta_bstar": 0.00064498089,
        "meta_mean_motion_dot": 3.356e-05,
        "meta_mean_motion_ddot": 0,
        "tle_line1": "1 34521U 97051HN  25351.15927852  .00003356  00000+0  64498-3 0  9992",
        "tle_line2": "2 34521  86.3798  28.6027 0002092 192.7968 167.3192 14.63404940885373"
      },
      "geometry": {
        "type": "Point",
        "coordinates": [
          -159.1576230858506,
          64.243542164199
        ]
      }
    },
    {
      "type": "Feature",
      "properties": {
        "norad_id": 34525,
        "name": "IRIDIUM 33 DEB",
        "group": "iridium-33-debris",
        "lat": -67.46287330960146,
        "lon": 35.95049887560258,
        "alt_km": 760.3165293396014,
        "timestamp": "2025-12-17T15:50:10.166217+00:00",
        "meta_object_name": "IRIDIUM 33 DEB",
        "meta_object_id": "1997-051HS",
        "meta_epoch": "2025-12-17T04:46:27.166656",
        "meta_mean_motion": 14.42916282,
        "meta_eccentricity": 0.00065663,
        "meta_inclination": 86.3725,
        "meta_ra_of_asc_node": 44.9406,
        "meta_arg_of_pericenter": 84.9013,
        "meta_mean_anomaly": 334.7482,
        "meta_ephemeris_type": 0,
        "meta_classification_type": "U",
        "meta_norad_cat_id": 34525,
        "meta_element_set_no": 999,
        "meta_rev_at_epoch": 88152,
        "meta_bstar": 0.00029987133,
        "meta_mean_motion_dot": 1.022e-05,
        "meta_mean_motion_ddot": 0,
        "tle_line1": "1 34525U 97051HS  25351.19892554  .00001022  00000+0  29987-3 0  9992",
        "tle_line2": "2 34525  86.3725  44.9406 0006566  84.9013 334.7482 14.42916282881521"
      },
      "geometry": {
        "type": "Point",
        "coordinates": [
          35.95049887560258,
          -67.46287330960146
        ]
      }
    },
    {
      "type": "Feature",
      "properties": {
        "norad_id": 34529,
        "name": "IRIDIUM 33 DEB",
        "group": "iridium-33-debris",
        "lat": 33.28019488439489,
        "lon": -149.07781964236315,
        "alt_km": 750.792188396942,
        "timestamp": "2025-12-17T15:50:10.166227+00:00",
        "meta_object_name": "IRIDIUM 33 DEB",
        "meta_object_id": "1997-051HW",
        "meta_epoch": "2025-12-17T03:29:20.563296",
        "meta_mean_motion": 14.40619267,
        "meta_eccentricity": 0.00053513,
        "meta_inclination": 86.3637,
        "meta_ra_of_asc_node": 33.5337,
        "meta_arg_of_pericenter": 163.3615,
        "meta_mean_anomaly": 196.7761,
        "meta_ephemeris_type": 0,
        "meta_classification_type": "U",
        "meta_norad_cat_id": 34529,
        "meta_element_set_no": 999,
        "meta_rev_at_epoch": 88205,
        "meta_bstar": 9.9400993e-05,
        "meta_mean_motion_dot": 3.37e-06,
        "meta_mean_motion_ddot": 0,
        "tle_line1": "1 34529U 97051HW  25351.14537689  .00000337  00000+0  99401-4 0  9993",
        "tle_line2": "2 34529  86.3637  33.5337 0005351 163.3615 196.7761 14.40619267882051"
      },
      "geometry": {
        "type": "Point",
        "coordinates": [
          -149.07781964236315,
          33.28019488439489
        ]
      }
    },
    {
      "type": "Feature",
      "properties": {
        "norad_id": 34538,
        "name": "IRIDIUM 33 DEB",
        "group": "iridium-33-debris",
        "lat": 20.051298193092645,
        "lon": 4.763099614083814,
        "alt_km": 741.453843797085,
        "timestamp": "2025-12-17T15:50:10.166238+00:00",
        "meta_object_name": "IRIDIUM 33 DEB",
        "meta_object_id": "1997-051JF",
        "meta_epoch": "2025-12-17T01:03:31.187808",
        "meta_mean_motion": 14.42674285,
        "meta_eccentricity": 0.00323945,
        "meta_inclination": 86.277,
        "meta_ra_of_asc_node": 3.6709,
        "meta_arg_of_pericenter": 313.2499,
        "meta_mean_anomaly": 110.7725,
        "meta_ephemeris_type": 0,
        "meta_classification_type": "U",
        "meta_norad_cat_id": 34538,
        "meta_element_set_no": 999,
        "meta_rev_at_epoch": 87818,
        "meta_bstar": 0.000746447,
        "meta_mean_motion_dot": 2.516e-05,
        "meta_mean_motion_ddot": 0,
        "tle_line1": "1 34538U 97051JF  25351.04411097  .00002516  00000+0  74645-3 0  9999",
        "tle_line2": "2 34538  86.2770   3.6709 0032394 313.2499 110.7725 14.42674285878180"
      },
      "geometry": {
        "type": "Point",
        "coordinates": [
          4.763099614083814,
          20.051298193092645
        ]
      }
    }
  ]
}